OBJECT_NAME,OBJECT_ID,EPOCH,MEAN_MOTION,ECCENTRICITY,INCLINATION,RA_OF_ASC_NODE,ARG_OF_PERICENTER,MEAN_ANOMALY,EPHEMERIS_TYPE,CLASSIFICATION_TYPE,NORAD_CAT_ID,ELEMENT_SET_NO,REV_AT_EPOCH,BSTAR,MEAN_MOTION_DOT,MEAN_MOTION_DDOT
STARLINK-31967,2024-111F,2026-07-12T11:07:40.414944,15.34392650,.00008063,53.1602,213.4616,72.7936,287.3155,0,U,60021,999,11818,-.13551273E-3,-.495E-4,0
STARLINK-31982,2024-111G,2026-07-12T10:58:34.726368,15.34390346,.00013841,53.1577,213.4287,76.3600,283.7557,0,U,60022,999,11818,-.8481338E-5,-.663E-5,0
STARLINK-31992,2024-111H,2026-07-12T10:37:54.799968,15.30188203,.00008565,53.1588,216.1737,83.4214,276.6885,0,U,60023,999,11814,.10027469E-4,-.62E-6,0
STARLINK-31990,2024-111J,2026-07-13T00:38:20.290272,15.30183145,.0001731,53.1598,213.4139,94.7638,265.3561,0,U,60024,999,11822,-.63181E-5,-.546E-5,0
STARLINK-31939,2024-111L,2026-07-13T01:52:36.505056,15.30203419,.0001111,53.1593,213.0232,94.5379,265.5749,0,U,60026,999,11823,.5526E-4,.1278E-4,0
STARLINK-32012,2024-111M,2026-07-13T00:23:06.797760,15.30172549,.0001267,53.1566,213.3434,335.9174,24.1767,0,U,60027,999,11822,.18919E-3,.5243E-4,0
STARLINK-32008,2024-111N,2026-07-13T00:29:11.378976,15.30196840,.000143,53.1558,213.3672,77.6102,282.5058,0,U,60028,999,11822,.38029E-4,.767E-5,0
STARLINK-32006,2024-111P,2026-07-13T02:16:55.609248,15.30179564,.0001389,53.1568,213.1289,91.0960,269.0200,0,U,60029,999,11823,-.49016E-4,-.181E-4,0
STARLINK-32011,2024-111Q,2026-07-12T01:41:49.298208,15.34417337,.00010472,53.1583,215.2826,74.8455,285.2664,0,U,60030,999,11811,.89631581E-4,.2655E-4,0
STARLINK-31878,2024-111R,2026-07-12T21:49:13.075968,15.34389337,.0001221,53.1593,160.7305,96.7082,263.4060,0,U,60031,999,11870,-.1664E-4,-.938E-5,0
STARLINK-32017,2024-111S,2026-07-13T02:23:01.951296,15.30181025,.0000954,53.1595,213.1751,77.1691,282.9416,0,U,60032,999,11823,.39681E-4,.816E-5,0
STARLINK-32005,2024-111U,2026-07-12T02:37:00.388128,15.30193748,.00015169,53.1568,217.6384,94.8725,265.2449,0,U,60034,999,11798,.87236696E-4,.2225E-4,0
STARLINK-31981,2024-111V,2026-07-13T02:35:09.249216,15.30192229,.0000912,53.1628,213.2081,28.3176,331.7874,0,U,60035,999,11816,-.20249E-4,-.958E-5,0
STARLINK-31985,2024-111W,2026-07-12T13:58:10.522272,15.30188928,.0001325,53.1579,215.6109,80.2088,279.9062,0,U,60036,999,11809,-.44124E-5,-.49E-5,0
STARLINK-31918,2024-111X,2026-07-13T00:14:00.381696,15.30192859,.0001064,53.1591,213.3051,96.5037,263.6085,0,U,60037,999,11815,.39235E-4,.803E-5,0
STARLINK-11129 [DTC],2024-112A,2026-07-12T21:48:47.630304,15.69711118,.0001108,53.1585,9.3104,136.7074,223.4031,0,U,60038,999,12064,.2117E-4,.1977E-4,0
STARLINK-11140 [DTC],2024-112B,2026-07-12T20:10:02.396064,15.69719353,.0000894,53.1596,9.5929,113.1050,247.0063,0,U,60039,999,12063,.20391E-4,.1883E-4,0
STARLINK-11122 [DTC],2024-112C,2026-07-12T21:34:39.870912,15.69713679,.0000694,53.1582,9.2462,121.7943,238.3142,0,U,60040,999,12064,.18461E-4,.1649E-4,0
STARLINK-11149 [DTC],2024-112D,2026-07-12T21:27:35.823168,15.69718983,.0000579,53.1592,9.2137,100.7269,259.3814,0,U,60041,999,12064,.1839E-4,.1641E-4,0
STARLINK-11120 [DTC],2024-112E,2026-07-12T18:17:09.963168,15.69698580,.000109,53.1589,9.8097,119.2842,240.8284,0,U,60042,999,12062,.42172E-4,.4521E-4,0
STARLINK-11086 [DTC],2024-112F,2026-07-12T21:13:28.463808,15.69713536,.0000723,53.1581,9.1472,116.1212,243.9880,0,U,60043,999,12064,.67166E-5,.226E-5,0
STARLINK-11148 [DTC],2024-112G,2026-07-12T21:06:24.674400,15.69712061,.0000874,53.1598,9.1142,119.1854,240.9251,0,U,60044,999,12064,.12687E-4,.949E-5,0
STARLINK-11116 [DTC],2024-112H,2026-07-12T20:59:21.036192,15.69719177,.0001039,53.1594,9.0825,84.4344,275.6793,0,U,60045,999,12064,.11041E-4,.75E-5,0
STARLINK-11155 [DTC],2024-112J,2026-07-12T17:48:55.354176,15.69710526,.0000557,53.1578,9.6784,65.1929,294.9147,0,U,60046,999,12062,.63755E-5,.185E-5,0
STARLINK-11163 [DTC],2024-112K,2026-07-12T20:45:13.038336,15.69717104,.0000657,53.1588,9.0178,115.3504,244.7582,0,U,60047,999,12064,.18656E-4,.1673E-4,0
STARLINK-11135 [DTC],2024-112L,2026-07-12T18:52:20.634816,15.69710014,.0000941,53.1590,9.2516,75.4919,284.6204,0,U,60048,999,12063,.35902E-4,.3763E-4,0
STARLINK-11151 [DTC],2024-112M,2026-07-12T17:34:48.254016,15.69702331,.0001262,53.1591,9.6175,73.1922,286.9234,0,U,60049,999,12062,-.46197E-5,-.1148E-4,0
STARLINK-11137 [DTC],2024-112N,2026-07-12T18:59:24.669600,15.69710640,.0000708,53.1593,9.2690,81.3696,278.7402,0,U,60050,999,12063,.12292E-4,.901E-5,0
STARLINK-31811,2024-112P,2026-07-12T10:59:09.066912,15.31698208,.0001342,53.1584,218.1440,82.9946,277.1208,0,U,60051,999,11770,.4789336E-4,.1121E-4,0
STARLINK-31775,2024-112Q,2026-07-13T00:45:15.380928,15.30194182,.0001071,53.1568,216.0327,98.9227,261.1895,0,U,60052,999,11778,.15697E-4,.106E-5,0
STARLINK-31793,2024-112R,2026-07-12T10:47:53.926944,15.30187841,.00014609,53.1592,218.8050,63.0175,297.0975,0,U,60053,999,11769,.17683672E-4,.164E-5,0
STARLINK-31735,2024-112S,2026-07-12T12:03:42.831648,15.30246164,.00016852,53.1592,218.4191,99.0447,261.0745,0,U,60054,999,11770,-.35458701E-3,-.10861E-3,0
STARLINK-31788,2024-112T,2026-07-13T00:31:34.674240,15.30198914,.000129,53.1564,215.9716,99.6053,260.5093,0,U,60055,999,11778,.82827E-4,.2095E-4,0
STARLINK-31825,2024-112U,2026-07-13T02:14:47.688864,15.30171544,.0001152,53.1544,215.7074,86.7987,273.3145,0,U,60056,999,11779,-.78815E-4,-.269E-4,0
STARLINK-31437,2024-112V,2026-07-12T13:51:27.628704,15.30181799,.0004457,53.1557,218.1780,70.0955,290.0526,0,U,60057,999,11771,-.57379E-4,-.206E-4,0
STARLINK-11181 [DTC],2024-113A,2026-07-12T16:47:14.748000,15.69714946,.0000743,53.1592,295.0872,90.9526,269.1577,0,U,60059,999,11919,.54286E-5,.7E-6,0
STARLINK-11176 [DTC],2024-113B,2026-07-12T13:36:49.351968,15.69710707,.0000879,53.1592,295.6839,82.9242,277.1876,0,U,60060,999,11917,.13434E-4,.1039E-4,0
STARLINK-11167 [DTC],2024-113C,2026-07-12T16:33:07.034400,15.69712152,.0000788,53.1587,295.0235,76.2788,283.8317,0,U,60061,999,11949,.11485E-4,.804E-5,0
STARLINK-11166 [DTC],2024-113D,2026-07-12T13:22:41.348064,15.69707026,.0000721,53.1572,295.6143,106.7779,253.3318,0,U,60062,999,11917,.1616E-4,.137E-4,0
STARLINK-11165 [DTC],2024-113E,2026-07-12T17:50:40.269696,15.69713593,.0001004,53.1584,294.6452,74.1465,285.9663,0,U,60063,999,11920,.19808E-4,.1812E-4,0
STARLINK-11169 [DTC],2024-113F,2026-07-12T19:15:14.781024,15.69749913,.0001003,53.1581,294.2982,67.9628,292.1496,0,U,60064,999,11921,.25631E-4,.2522E-4,0
STARLINK-11102 [DTC],2024-113G,2026-07-12T13:01:30.380736,15.69704708,.00010787,53.1588,295.5208,93.1824,266.9317,0,U,60065,999,11917,.3133586E-5,-.209E-5,0
STARLINK-11141 [DTC],2024-113H,2026-07-12T14:26:07.211040,15.69704750,.0000942,53.1594,295.1734,69.1615,290.9503,0,U,60066,999,11918,.11209E-4,.769E-5,0
STARLINK-11153 [DTC],2024-113J,2026-07-12T14:19:12.300096,15.69705831,.0000867,53.1581,295.8735,123.0006,237.1096,0,U,60067,999,11917,.6785E-5,.234E-5,0
STARLINK-11170 [DTC],2024-113K,2026-07-12T17:15:30.407616,15.69729852,.0000857,53.1575,295.2133,68.7056,291.4053,0,U,60068,999,11919,.13162E-3,.15399E-3,0
STARLINK-11171 [DTC],2024-113L,2026-07-12T12:33:23.720544,15.69705849,.00007569,53.1568,296.1247,68.0024,292.1075,0,U,60069,999,11916,.2962673E-5,-.229E-5,0
STARLINK-11186 [DTC],2024-113M,2026-07-12T12:26:20.536800,15.69701609,.00010858,53.1585,296.0942,65.9154,294.1978,0,U,60070,999,11957,.18785023E-4,.1687E-4,0
STARLINK-11184 [DTC],2024-113N,2026-07-12T13:50:57.075072,15.69715561,.0001165,53.1601,295.7825,69.2205,290.8937,0,U,60071,999,11917,.6401E-5,.187E-5,0
STARLINK-32032,2024-113U,2026-07-12T05:45:18.521280,15.34233427,.0001886,53.1591,138.1464,104.0090,256.1122,0,U,60077,999,11633,.93853E-3,.31299E-3,0
STARLINK-31441,2024-117A,2026-07-12T23:20:56.076000,15.34390811,.0001131,53.1611,174.7914,85.9478,274.1654,0,U,60091,999,11607,.21905E-4,.364E-5,0
STARLINK-32044,2024-117B,2026-07-12T22:38:30.562656,15.34391648,.0000906,53.1611,174.6069,99.9641,260.1464,0,U,60092,999,11607,-.54501E-5,-.56E-5,0
STARLINK-31239,2024-117C,2026-07-12T23:23:58.161408,15.34399780,.000103,53.1608,174.8057,68.9564,291.1549,0,U,60093,999,11607,.48525E-4,.1264E-4,0
STARLINK-32007,2024-117D,2026-07-12T08:22:14.395008,15.34386217,.00010817,53.1588,177.2963,107.0286,253.0835,0,U,60094,999,11598,-.11893609E-4,-.778E-5,0
STARLINK-32028,2024-117E,2026-07-12T22:53:39.729120,15.34390522,.0000761,53.1623,174.6756,67.3577,292.7506,0,U,60095,999,11607,-.24549E-4,-.1205E-4,0
STARLINK-32016,2024-117F,2026-07-12T22:08:20.740128,15.34381136,.0001153,53.1590,175.1883,95.1279,264.9855,0,U,60096,999,11606,.50079E-4,.1315E-4,0
STARLINK-32003,2024-117G,2026-07-12T00:03:05.455872,15.34387328,.00011629,53.1608,179.3964,91.2365,268.8771,0,U,60097,999,11592,.11754411E-3,.3596E-4,0
STARLINK-32026,2024-117H,2026-07-12T23:02:44.996064,15.34390927,.00013,53.1604,174.7124,85.5232,274.5919,0,U,60098,999,11607,-.77088E-6,-.402E-5,0
STARLINK-31732,2024-117J,2026-07-13T00:00:02.000160,15.34386703,.0001518,53.1585,174.5441,105.2130,103.1016,0,U,60099,999,583,.24287E-3,.7835E-4,0
STARLINK-31996,2024-117K,2026-07-13T00:06:14.944032,15.34388195,.0001481,53.1590,174.2750,89.4716,270.6456,0,U,60100,999,11608,-.98719E-5,-.71E-5,0
STARLINK-31999,2024-117L,2026-07-12T00:06:07.053120,15.34387318,.00012448,53.1612,179.4105,89.1868,270.9277,0,U,60101,999,11592,.10406592E-4,-.25E-6,0
STARLINK-31954,2024-117M,2026-07-12T22:17:23.275968,15.34413813,.0000772,53.1613,175.2255,101.9570,258.1519,0,U,60102,999,11606,.12439E-3,.3831E-4,0
STARLINK-32013,2024-117N,2026-07-12T22:20:28.042368,15.34388935,.000148,53.1598,175.2389,118.1050,242.0103,0,U,60103,999,11606,.40369E-5,-.24E-5,0
STARLINK-32009,2024-117P,2026-07-12T23:14:51.709920,15.34396931,.0001578,53.1594,174.7368,66.0264,294.0903,0,U,60104,999,11607,.18416E-4,.246E-5,0
STARLINK-32018,2024-117Q,2026-07-13T00:18:21.682080,15.34391941,.0001492,53.1591,174.3272,89.9043,270.2130,0,U,60105,999,11608,.26464E-4,.518E-5,0
